STARLINK-4178           
1 53277U 22086AM  22230.58334491  .00025409  00000+0  18458-3 0  9996
2 53277  53.2184 279.3511 0002372  19.6672  71.0155 15.73240543  1309
STARLINK-4180           
1 53278U 22086AN  22230.58334491  .00012441  00000+0  92766-4 0  9994
2 53278  53.2183 279.3525 0002421  20.5289  68.9479 15.73241222  1303
STARLINK-4169           
1 53280U 22086AQ  22230.91667824 -.00015228  00000+0 -10420-3 0  9997
2 53280  53.2188 277.7005 0002313  18.9589 160.1680 15.73211912  4620
STARLINK-4182           
1 53281U 22086AR  22230.91667824 -.00033674  00000+0 -23585-3 0  9999
2 53281  53.2189 277.6965 0002808  15.3487 166.0936 15.73254086  4621
STARLINK-4164           
1 53282U 22086AS  22230.91667824 -.00048046  00000+0 -33919-3 0  9991
2 53282  53.2190 277.6991 0002194  24.0918 156.1922 15.73242780  4620
STARLINK-4175           
1 53283U 22086AT  22230.91667824 -.00048432  00000+0 -34195-3 0  9998
2 53283  53.2193 277.6971 0002187  16.9800 165.0875 15.73244045  4626
STARLINK-4172           
1 53284U 22086AU  22230.58334491  .00073136  00000+0  52086-3 0  9999
2 53284  53.2185 279.3485 0002502  20.3779  71.5159 15.73203966  1307
STARLINK-4173           
1 53285U 22086AV  22230.58334491  .00035502  00000+0  25602-3 0  9999
2 53285  53.2189 279.3448 0002416  21.3055  73.5438 15.73224327  1309
STARLINK-4165           
1 53286U 22086AW  22230.91667824  .00055202  00000+0  39547-3 0  9998
2 53286  53.2187 277.6931 0002052  27.3848 155.2994 15.73180206  4628
STARLINK-4107           
1 53287U 22086AX  22230.58334491  .00031199  00000+0  22563-3 0  9992
2 53287  53.2172 279.3418 0002667  18.2579  77.7722 15.73224365  1308
STARLINK-4162           
1 53288U 22086AY  22230.91667824 -.00040215  00000+0 -28306-3 0  9991
2 53288  53.2184 277.6906 0002141  19.5216 163.7677 15.73231471  4623
STARLINK-4176           
1 53289U 22086AZ  22230.91667824  .00032776  00000+0  23693-3 0  9997
2 53289  53.2189 277.6872 0002267  23.2273 162.9961 15.73209624  4627
STARLINK-4149           
1 53290U 22086BA  22230.58334491  .00025289  00000+0  18375-3 0  9995
2 53290  53.2183 279.3410 0002513  23.8727  71.5690 15.73238186  1305
STARLINK-4166           
1 53291U 22086BB  22230.91667824 -.00027007  00000+0 -18836-3 0  9996
2 53291  53.2175 277.6864 0002263  25.3862 161.4536 15.73228238  4623
STARLINK-4159           
1 53292U 22086BC  22230.58334491  .00087233  00000+0  61950-3 0  9991
2 53292  53.2184 279.3387 0002435  24.5463  72.1090 15.73199138  1303
STARLINK-4148           
1 53293U 22086BD  22230.58334491  .00016341  00000+0  12049-3 0  9999
2 53293  53.2188 279.3375 0002390  23.7516  74.6951 15.73225666  1304
STARLINK-4146           
1 53294U 22086BE  22230.58334491  .00028299  00000+0  20516-3 0  9993
2 53294  53.2183 279.3340 0002411  28.6783  70.3302 15.73223005  1304
2022-087A               
1 53299U 22087A   22230.86814903  .00003690  00000+0  16804-3 0  9994
2 53299  97.4037 304.9306 0014642 199.0488 272.7339 15.21215943  3459
2022-087B               
1 53300U 22087B   22230.86257558  .00003538  00000+0  15956-3 0  9992
2 53300  97.4037 304.9376 0014536 206.4105 265.4301 15.21586376  3459
2022-087C               
1 53301U 22087C   22230.86171836  .00003379  00000+0  15224-3 0  9998
2 53301  97.4031 304.9374 0015322 206.1917 265.6856 15.21640589  3458
2022-087D               
1 53302U 22087D   22230.85774247  .00006619  00000+0  29238-3 0  9993
2 53302  97.4039 304.9453 0014332 212.2513 259.1019 15.21972666  3458
2022-087E               
1 53303U 22087E   22230.85695926  .00003980  00000+0  17694-3 0  9991
2 53303  97.4064 304.9535 0015563 211.4798 261.1308 15.21983499  3451
ZK-1A R/B               
1 53304U 22087F   22230.19844202  .00037345  00000+0  38318-3 0  9990
2 53304  97.2782 304.8058 0173414 231.8006 126.7522 15.48296010  3408
1998-067TQ              
1 53305U 98067TQ  22230.71117299  .00040958  00000+0  68082-3 0  9994
2 53305  51.6424  26.7137 0003029 132.7671 227.3574 15.51650639  4361
1998-067TR              
1 53306U 98067TR  22230.70809324  .00047291  00000+0  77679-3 0  9990
2 53306  51.6425  26.6942 0002476 137.1260 222.9923 15.51920953  4362
1998-067TS              
1 53307U 98067TS  22230.70778012  .00047074  00000+0  77305-3 0  9995
2 53307  51.6421  26.6910 0002497 122.3191 237.8041 15.51929222  4393
RS3S                    
1 53308U 98067TT  22230.70749851  .00053006  00000+0  86873-3 0  9997
2 53308  51.6423  26.6901 0002283 126.4287 233.6913 15.51933775  4424
RS1S                    
1 53309U 98067TU  22230.90003822  .00053124  00000+0  86836-3 0  9991
2 53309  51.6422  25.7251 0002818 145.2735 214.8439 15.52005272  4408
RS5S                    
1 53310U 98067TV  22230.90018367  .00050853  00000+0  83342-3 0  9998
2 53310  51.6426  25.7271 0002555 146.5770 213.5381 15.51951927  4438
RS6S                    
1 53311U 98067TW  22230.89865634  .00057178  00000+0  92920-3 0  9993
2 53311  51.6420  25.7158 0001987 117.4799 242.6393 15.52137982  4459
RS9S                    
1 53312U 98067TX  22230.89908374  .00054189  00000+0  88369-3 0  9994
2 53312  51.6424  25.7188 0003010 148.4390 211.6781 15.52062193  4398
RS12S                   
1 53313U 98067TY  22230.89828617  .00052527  00000+0  85552-3 0  9991
2 53313  51.6424  25.7141 0002530 154.4712 205.6403 15.52111406  4441
YAOGAN-35 03A           
1 53316U 22088A   22230.81359130  .00009795  00000+0  40684-3 0  9991
2 53316  34.9983 357.3045 0006456  86.6663  43.9181 15.23046740  3088
CZ-2D R/B               
1 53317U 22088B   22230.80038113  .00025076  00000+0  97652-3 0  9993
2 53317  35.0001 357.2010 0007782  77.6172  49.6519 15.25048333  3081
YAOGAN-35 03B           
1 53318U 22088C   22230.75028992  .00005653  00000+0  23616-3 0  9990
2 53318  34.9989 357.6980 0004440  36.4740 107.3993 15.22973130  3073
CZ-2D DEB               
1 53319U 22088D   22230.79804551  .00014939  00000+0  58367-3 0  9996
2 53319  34.9998 357.1829 0007802  91.2206  35.4638 15.25019456  3085
YAOGAN-35 03C           
1 53320U 22088E   22230.12768519  .00010028  00000+0  41829-3 0  9998
2 53320  34.9983   1.5602 0004722  37.8324 306.2237 15.22909067  2980
RS4S                    
1 53321U 98067TZ  22230.70794423  .00047030  00000+0  77260-3 0  9997
2 53321  51.6428  26.6943 0002376 135.1550 224.9632 15.51920005  4415
COSMOS 2558             
1 53323U 22089A   22230.53012354  .00015430  00000+0  37224-3 0  9992
2 53323  97.2342 328.5501 0010812 204.6837 155.3894 15.41240926  2574
SL-4 R/B                
1 53324U 22089B   22230.52199258  .00079274  39588-5  42552-3 0  9996
2 53324  97.2531 329.3840 0100443   7.7191 352.5590 15.73179376  2620
2022-090A               
1 53346U 22090A   22230.90578991  .00002494  00000+0  11020-3 0  9996
2 53346  97.4713 303.6391 0010334 202.8298 214.7088 15.22631396  2258
2022-090B               
1 53347U 22090B   22230.91104100  .00007314  00000+0  30762-3 0  9995
2 53347  97.4714 303.6648 0011962 221.2825 271.4981 15.23637174  2246
2022-090C               
1 53348U 22090C   22230.90325635  .00009903  00000+0  41437-3 0  9990
2 53348  97.4705 303.6552 0011507 222.8091 229.5319 15.23717392  2248
CZ-4B R/B               
1 53349U 22090D   22230.86880255  .00058481  31264-5  40312-3 0  9998
2 53349  97.5149 304.5627 0154168 336.0498  23.3773 15.60186308  2304
SBIRS GEO-6 (USA 336)   
1 53355U 22092A   22230.64726260  .00000106  00000+0  00000+0 0  9993
2 53355   6.5787 312.4429 0006940 175.3830 284.9558  1.00483984   218
ATLAS 5 CENTAUR R/B     
1 53356U 22092B   22230.22917870 -.00000277  00000+0  00000+0 0  9997
2 53356  16.4572 311.9550 5659067 179.2513 182.2652  1.99526488   276
PRC TEST SPACECRAFT2    
1 53357U 22093A   22230.88838366  .00023113  00000+0  44048-3 0  9990
2 53357  49.9946  93.2834 0180777 207.1294 275.4488 15.32173859  2183
CZ-2F R/B               
1 53358U 22093B   22230.34235879  .00010845  00000+0  21146-3 0  9994
2 53358  49.9907  95.9915 0179518 204.8329 154.3911 15.32475896  2096
CZ-2F DEB               
1 53359U 22093C   22230.62953919  .00125546  00000+0  22976-2 0  9994
2 53359  50.3018  95.7498 0233978 222.0926 136.1853 15.23826033  2137
CZ-2F DEB               
1 53360U 22093D   22230.33854159  .00137970  00000+0  27636-2 0  9992
2 53360  50.3308  97.6096 0245961 215.0303 143.4262 15.19480851  2079
CZ-2F DEB               
1 53361U 22093E   22230.35062244  .00113218  00000+0  29816-2 0  9992
2 53361  49.7517  99.5723 0337893 203.2544 155.2797 14.95975429  2059
CZ-2F DEB               
1 53362U 22093F   22230.71470264  .00089317  00000+0  24271-2 0  9990
2 53362  49.8054  98.1849 0350782 201.6658 156.9124 14.92826434  2107
2022-093G               
1 53363U 22093G   22230.43194964  .00464967  00000+0  52279-2 0  9997
2 53363  50.0227  94.9680 0194678 218.1831 140.5207 15.41304710  2123
2022-093H               
1 53364U 22093H   22230.90305202  .00000688  00000+0  69569-4 0  9997
2 53364  50.0285  96.5660 0110479 256.5901 102.2678 15.00032724  2131
DANURI (KPLO)           
1 53365U 22094A   22216.96995833  .00001843 -58274-5  00000+0 0  9991
2 53365  29.5000 147.2458 0003300 140.4700 307.5200 16.09976711    07
2022-095A               
1 53367U 22095A   22230.82161725  .00007734  00000+0  29150-3 0  9993
2 53367  97.4097 304.6483 0079996  44.5296  63.7134 15.24338641  1473
2022-095B               
1 53368U 22095B   22230.88253490  .00007959  00000+0  29787-3 0  9996
2 53368  97.4093 304.7115 0080122  43.6583  45.7581 15.24545344  1471
2022-095C               
1 53369U 22095C   22230.88827377  .00005362  00000+0  20127-3 0  9993
2 53369  97.4093 304.7182 0079820  43.1878  82.0786 15.24640136  1477
2022-096A               
1 53370U 22096A   22230.82332885  .00004028  00000+0  16801-3 0  9997
2 53370  97.4351 132.2168 0001828  92.4826 267.6621 15.24250445  1476
